{
    "links": {
        "self": "http://www.neowsapp.com/rest/v1/neo/3802034?api_key=iIulBulltgU6a56xZRHN4H3l9WmuAYTsLGpBGhQ2"
    },
    "id": "3802034",
    "neo_reference_id": "3802034",
    "name": "(2018 FV2)",
    "designation": "2018 FV2",
    "nasa_jpl_url": "http://ssd.jpl.nasa.gov/sbdb.cgi?sstr=3802034",
    "absolute_magnitude_h": 24.8,
    "estimated_diameter": {
        "kilometers": {
            "estimated_diameter_min": 0.0291443905,
            "estimated_diameter_max": 0.0651688382
        },
        "meters": {
            "estimated_diameter_min": 29.1443904535,
            "estimated_diameter_max": 65.1688382168
        },
        "miles": {
            "estimated_diameter_min": 0.018109479,
            "estimated_diameter_max": 0.0404940262
        },
        "feet": {
            "estimated_diameter_min": 95.6180819754,
            "estimated_diameter_max": 213.8085311752
        }
    },
    "is_potentially_hazardous_asteroid": false,
    "close_approach_data": [
        {
            "close_approach_date": "2018-03-16",
            "close_approach_date_full": "2018-Mar-16 16:05",
            "epoch_date_close_approach": 1521216300000,
            "relative_velocity": {
                "kilometers_per_second": "5.7690841804",
                "kilometers_per_hour": "20768.7030495417",
                "miles_per_hour": "12904.8644031999"
            },
            "miss_distance": {
                "astronomical": "0.1897771815",
                "lunar": "73.8233236035",
                "kilometers": "28390262.127003405",
                "miles": "17640890.866740789"
            },
            "orbiting_body": "Earth"
        }
    ],
    "orbital_data": {
        "orbit_id": "2",
        "orbit_determination_date": "2018-04-10 06:23:21",
        "first_observation_date": "2018-03-18",
        "last_observation_date": "2018-04-08",
        "data_arc_in_days": 21,
        "observations_used": 13,
        "orbit_uncertainty": "8",
        "minimum_orbit_intersection": ".188297",
        "jupiter_tisserand_invariant": "4.388",
        "epoch_osculation": "2458196.5",
        "eccentricity": ".24156271452416",
        "semi_major_axis": "1.554943774777997",
        "inclination": "10.93895320148643",
        "ascending_node_longitude": "178.7991184562416",
        "orbital_period": "708.2237097151324",
        "perihelion_distance": "1.17932733561018",
        "perihelion_argument": "346.5748304927274",
        "aphelion_distance": "1.930560213945814",
        "perihelion_time": "2458181.042104271895",
        "mean_anomaly": "7.857464224624923",
        "mean_motion": ".5083139621868945",
        "equinox": "J2000",
        "orbit_class": {
            "orbit_class_type": "AMO",
            "orbit_class_description": "Near-Earth asteroid orbits similar to that of 1221 Amor",
            "orbit_class_range": "1.017 AU < q (perihelion) < 1.3 AU"
        }
    },
    "is_sentry_object": false
}